STARLINK-1449_new
1 15666C 20035K   21326.14096007  .00006944  00000-0  46526-3 0  3261
2 15666  53.0546 268.1118 0001931  56.5682  20.7635 15.06392285    10
STARLINK-1449_old
1 25666C 20035K   21325.14564897  .00003126  00000-0  20950-3 0  3258
2 25666  53.0544 272.5796 0001860  55.6641  21.1072 15.06384190    11
